ONEWEB-0130             
1 47276U 20100U   23169.80495480  .00000133  00000+0  33366-3 0  9998
2 47276  87.9011 208.1567 0001998  91.2213 268.9144 13.12443412121090
ONEWEB-0131             
1 47277U 20100V   23169.80284860  .00000179  00000+0  46242-3 0  9994
2 47277  87.9008 208.1013 0002020  87.6625 272.4735 13.12444693121139
ONEWEB-0132             
1 47278U 20100W   23170.06116938 -.00000338  00000+0 -97478-3 0  9991
2 47278  87.9009 208.0520 0001966  98.2888 261.8463 13.12441023121066
ONEWEB-0133             
1 47279U 20100X   23170.07811796  .00000103  00000+0  25005-3 0  9992
2 47279  87.9003 208.0830 0002094  90.9128 269.2241 13.12446327121220
ONEWEB-0134             
1 47280U 20100Y   23170.35130406  .00000064  00000+0  14266-3 0  9990
2 47280  87.9005 208.0155 0001663  91.6955 268.4364 13.12438719121235
ONEWEB-0135             
1 47281U 20100Z   23169.86211562  .00000394  00000+0  10605-2 0  9996
2 47281  87.8995 208.1205 0001923  94.1522 265.9826 13.12444447121192
ONEWEB-0136             
1 47282U 20100AA  23169.80706613  .00000065  00000+0  14606-3 0  9998
2 47282  87.9008 208.1632 0001408  92.5145 267.6145 13.12441680121115
ONEWEB-0137             
1 47283U 20100AB  23170.07175883 -.00000443  00000+0 -12677-2 0  9996
2 47283  87.9009 208.0767 0002101  97.2452 262.8916 13.12443621121052
ONEWEB-0138             
1 47284U 20100AC  23170.12471829 -.00000332  00000+0 -95922-3 0  9994
2 47284  87.9014 208.0764 0002010  96.4366 263.6991 13.12441280121141
ONEWEB-0139             
1 47285U 20100AD  23169.79225212  .00000397  00000+0  10691-2 0  9997
2 47285  87.8994 208.1772 0001874  90.9080 269.2264 13.12442015121172
ONEWEB-0140             
1 47286U 20100AE  23169.81342435 -.00000210  00000+0 -61797-3 0  9998
2 47286  87.9010 208.1135 0001881  92.7738 267.3606 13.12442692121130
ONEWEB-0141             
1 47287U 20100AF  23170.06439052 -.00000255  00000+0 -74301-3 0  9994
2 47287  87.9010 208.0617 0002404  98.8307 261.3094 13.12441987121160
ONEWEB-0142             
1 47288U 20100AG  23169.82718672 -.00000433  00000+0 -12382-2 0  9993
2 47288  87.9010 208.1605 0002020  96.8465 263.2893 13.12441532121126
ONEWEB-0143             
1 47289U 20100AH  23169.85790895  .00000447  00000+0  12082-2 0  9994
2 47289  87.9008 208.1143 0002107  92.4586 267.6784 13.12444617121105
ONEWEB-0144             
1 47290U 20100AJ  23169.83035983 -.00000442  00000+0 -12651-2 0  9993
2 47290  87.9009 208.1362 0001772 102.2169 257.9158 13.12443739121027
ONEWEB-0145             
1 47291U 20100AK  23169.80070933  .00000279  00000+0  73909-3 0  9995
2 47291  87.9003 208.1360 0002055  96.1497 263.9865 13.12440462121213
ONEWEB-0146             
1 47292U 20100AL  23169.79648900  .00000367  00000+0  98589-3 0  9998
2 47292  87.9013 208.1588 0002508  84.4028 275.7387 13.12441757121128
ONEWEB-0147             
1 47293U 20100AM  23170.06965371 -.00000148  00000+0 -44696-3 0  9994
2 47293  87.9010 208.0637 0001608  92.5530 267.5782 13.12444553121055
YUANGUANG               
1 47296U 20102A   23170.53009696  .00020309  00000+0  60721-3 0  9996
2 47296  97.4324 271.1788 0005277 224.6488 135.4330 15.34591526138381
HAISI 1                 
1 47297U 20102B   23170.52255893  .00017683  00000+0  61904-3 0  9993
2 47297  97.4296 269.1631 0004748 214.2001 145.8934 15.29553048138243
XJY-7                   
1 47298U 20102C   23170.49088747  .00015798  00000+0  65766-3 0  9997
2 47298  97.3888 268.0094 0006298 145.6768 214.4877 15.23811425138496
TIANQI-8                
1 47299U 20102D   23170.51083185  .00020310  00000+0  60519-3 0  9999
2 47299  97.4345 272.3396 0004120 185.4561 174.6638 15.34702442138441
ET-SMART-RSS            
1 47300U 20102E   23170.47670821  .00068130  00000+0  11014-2 0  9993
2 47300  97.4363 277.8295 0003817 174.3190 185.8107 15.52614663138799
YAOGAN-33               
1 47302U 20103A   23170.47275070  .00000619  00000+0  14084-3 0  9992
2 47302  98.1714  61.5791 0000646 106.2991 253.8280 14.59275086131810
WEINA 2                 
1 47303U 20103B   23170.50213022  .00001232  00000+0  26438-3 0  9994
2 47303  98.1746  62.0909 0003579  50.0550 310.0964 14.60352101131831
TURKSAT 5A              
1 47306U 21001A   23170.35327198  .00000158  00000+0  00000+0 0  9997
2 47306   0.0229  71.7800 0000140 209.2022 144.4362  1.00271211  9020
CAPE-3                  
1 47309U 21002A   23169.66870708  .00029740  00000+0  71171-3 0  9992
2 47309  60.6782  54.3018 0012110 194.0542 166.0219 15.41265237134510
RADFXSAT-2 (AO-109)     
1 47311U 21002C   23169.67272611  .00022984  00000+0  59411-3 0  9991
2 47311  60.6819  52.8316 0011816 182.2790 177.8253 15.39047400134519
CP12 (EXOCUBE 2)        
1 47319U 21002L   23170.38826231  .00022709  00000+0  60161-3 0  9991
2 47319  60.6797  52.2475 0011984 188.9214 171.1669 15.38294899134559
TIANTONG-1 3            
1 47321U 21003A   23169.81133167 -.00000148  00000+0  00000+0 0  9996
2 47321   3.6338 308.8323 0003239 151.4991 180.0729  1.00271894  8980
GMS-T                   
1 47346U 21004A   23170.44572627  .00000000  00000+0 -20838-4 0  9996
2 47346  90.0566 232.1748 0004218 119.0289 241.1266 13.16609906115802
STARLINK-2011           
1 47350U 21005B   23169.81326608 -.00003443  00000+0 -21244-3 0  9993
2 47350  53.0523 207.7921 0001222  85.5233 274.5895 15.06385305133092
STARLINK-2017           
1 47351U 21005C   23170.04085161 -.00000860  00000+0 -38848-4 0  9996
2 47351  53.0546 166.7617 0000951  71.1841 288.9251 15.06399898134344
STARLINK-2034           
1 47352U 21005D   23169.79483159 -.00001386  00000+0 -74200-4 0  9992
2 47352  53.0523 207.8731 0001138  81.1608 278.9509 15.06386962133740
STARLINK-2045           
1 47353U 21005E   23170.08187954 -.00000116  00000+0  11124-4 0  9996
2 47353  53.0541 151.5838 0001145  89.1933 270.9187 15.06399653134567
STARLINK-2046           
1 47354U 21005F   23170.29382206  .00000168  00000+0  30166-4 0  9990
2 47354  53.0529 170.6335 0001078  87.6409 272.4704 15.06401488134319
STARLINK-2047           
1 47355U 21005G   23169.98374138  .00000208  00000+0  32848-4 0  9994
2 47355  53.0532 157.0276 0001021  87.9238 272.1868 15.06402854134471
STARLINK-2049           
1 47356U 21005H   23170.42789436 -.00000249  00000+0  21372-5 0  9994
2 47356  53.0528 175.0330 0001106  84.5912 275.5203 15.06400823134557
STARLINK-2050           
1 47357U 21005J   23169.83906962  .00007960  00000+0  55294-3 0  9997
2 47357  53.0515 207.6753 0001113  84.0798 276.0318 15.06382287133094
STARLINK-2055           
1 47358U 21005K   23170.03992551 -.00003499  00000+0 -21620-3 0  9992
2 47358  53.0523 176.7655 0001222  87.4926 272.6202 15.06388971134497
STARLINK-2069           
1 47359U 21005L   23170.38320651  .00007360  00000+0  51258-3 0  9996
2 47359  53.0516 200.2304 0001149  84.6367 275.4753 15.06390733133906
STARLINK-2070           
1 47360U 21005M   23170.25696489 -.00001213  00000+0 -62593-4 0  9997
2 47360  53.0528 170.8016 0001186  77.8808 282.2314 15.06394130133654
STARLINK-2071           
1 47361U 21005N   23170.31363752 -.00000203  00000+0  52819-5 0  9997
2 47361  53.0540 175.5459 0001147  84.7042 275.4078 15.06399068134530
STARLINK-2076           
1 47362U 21005P   23170.49148396  .00009923  00000+0  68430-3 0  9993
2 47362  53.0515 204.7463 0001168  89.5834 270.5289 15.06391338133191
STARLINK-2077           
1 47363U 21005Q   23170.09708856  .00010257  00000+0  70677-3 0  9991
2 47363  53.0512 206.5202 0001415  87.6086 272.5065 15.06384109133139
STARLINK-2081           
1 47366U 21005T   23170.12289088  .00001483  00000+0  11847-3 0  9994
2 47366  53.0509 206.3985 0001027  52.7887 307.3196 15.06385164133139
STARLINK-2082           
1 47367U 21005U   23169.81695258  .00006404  00000+0  44866-3 0  9994
2 47367  53.0514 207.7775 0001122  90.9131 269.1986 15.06380624133093
STARLINK-2084           
1 47368U 21005V   23169.80958184  .00006065  00000+0  42593-3 0  9992
2 47368  53.0518 207.8076 0001135  95.6457 264.4662 15.06377956133093
STARLINK-2085           
1 47369U 21005W   23170.47763432  .00000019  00000+0  20140-4 0  9996
2 47369  53.0533 184.7998 0000955  78.9844 281.1252 15.06400861134432
STARLINK-2086           
1 47370U 21005X   23169.70637785 -.00000073  00000+0  13948-4 0  9992
2 47370  53.0536 168.2715 0000518  67.8362 292.2682 15.06392948133646
STARLINK-2088           
1 47371U 21005Y   23170.48779833 -.00001331  00000+0 -70493-4 0  9998
2 47371  53.0527 204.7643 0001304  81.6803 278.4334 15.06390446133192
STARLINK-2089           
1 47372U 21005Z   23170.35007882  .00007407  00000+0  51584-3 0  9990
2 47372  53.0518 200.6996 0001490  88.4181 271.6978 15.06386171133233
STARLINK-2092           
1 47373U 21005AA  23170.08602899  .00003085  00000+0  22600-3 0  9995
2 47373  53.0526 206.5699 0001295  70.5445 289.5683 15.06386230133132
STARLINK-2093           
1 47374U 21005AB  23170.10718646  .00021398  00000+0  14505-2 0  9998
2 47374  53.0518 206.4721 0000592  52.3673 307.7370 15.06414716133136
STARLINK-2094           
1 47375U 21005AC  23170.11182952  .00002304  00000+0  17356-3 0  9999
2 47375  53.0516 206.4551 0000944  74.1854 285.9239 15.06390579134097
STARLINK-2096           
1 47376U 21005AD  23169.38569165 -.00005342  00000+0 -34010-3 0  9995
2 47376  53.0524 209.7119 0001185  82.1527 277.9596 15.06387804133023
STARLINK-2097           
1 47377U 21005AE  23169.83538575  .00007073  00000+0  49350-3 0  9991
2 47377  53.0508 207.6940 0001137  83.4604 276.6514 15.06378782133090
STARLINK-2098           
1 47378U 21005AF  23170.02704889 -.00000328  00000+0 -31136-5 0  9991
2 47378  53.0539 166.8331 0001169  83.4598 276.6524 15.06398998133689
STARLINK-2099           
1 47379U 21005AG  23169.96808455  .00000664  00000+0  63452-4 0  9993
2 47379  53.0537 167.0968 0001174  80.7641 279.3480 15.06404075133676
